#dP2019  4 12  0  0  0.00000000      96 __u+U ITR00 FIT  IAC
## 2048 432000.00000000   900.00000000 58585 0.0000000000000
+   98   C01C02C03C04C05C06C07C08C09C10C11C12C13C14C16E01E02
+        E03E04E05E07E08E09E11E12E13E14E15E18E19E21E24E25E26
+        E27E30E31E33E36G01G02G03G04G05G06G07G08G09G10G11G12
+        G13G14G15G16G17G18G19G20G21G22G23G24G25G26G27G28G29
+        G30G31G32J01J02J03J07R01R02R03R04R05R07R08R09R10R11
+        R13R14R15R16R17R18R19R20R21R22R23R24R26  0  0  0  0
++        12 12 12 12 12  9  8  9  8  8  8  8  8  8  9  5  5
++         5  5  6  5  5  5  5  5  5  5  5  5  5  5  5  5  5
++         5  5  5  4  5  3  3  3  4  3  3  3  3  3  3  3  3
++         3  3  3  3  3  3  3  3  3  0  3  3  3  3  3  3  4
++         3  3  3  9 10 10 15  5  5  5  5  5  5  5  5  5  5
++         5  5  5  5  5  5  5  5  5  5  5  6  9  0  0  0  0
%c M  cc GPS ccc cccc cccc cccc cccc ccccc ccccc ccccc ccccc
%c cc cc ccc ccc cccc cccc cccc cccc ccccc ccccc ccccc ccccc
%f  0.0000000  0.000000000  0.00000000000  0.000000000000000
%f  0.0000000  0.000000000  0.00000000000  0.000000000000000
%i    0    0    0    0      0      0      0      0         0
%i    0    0    0    0      0      0      0      0         0
/* INFORMATION & ANALYSIS CENTER (IAC) OF MCC   (RAPID DATA)
/* S/V CLOCKS ARE ALIGNED TO GPS & GLONASS TIME RESPECTIVELY
/* USING THE BROADCAST EPHEMERIS                            
/* PCV:IGS14_2038 OL/AL:FES2004  NONE     YN ORB:CoN CLK:CoN
*  2019 04 12 22 45  0.00000000
PC01 -32343.821253  27056.532875   -530.087769 999999.999999
PC02   4410.405614  41917.980674    -53.375404 999999.999999
PC03 -14728.089096  39517.790463   -577.098728 999999.999999
PC04 -39647.968703  14340.301547   -715.490296 999999.999999
PC05  21957.908377  36011.905750    218.924165 999999.999999
PC06 -18606.173108  21209.774616  31547.474657 999999.999999
PC07 -20999.533361  36804.668524  -1636.754836 999999.999999
PC08  -6099.454198  28920.549048 -29866.894060 999999.999999
PC09   -792.843674  24668.971235  34410.268192 999999.999999
PC10 -10430.191879  38528.451775 -14049.058295 999999.999999
PC11  25035.799435   6432.153658  10504.164057 999999.999999
PC12  13322.064990  19074.156310 -15289.249831 999999.999999
PC13   4920.451623  37271.176467 -18804.928483 999999.999999
PC14  19451.197237   4332.224474  19620.632167 999999.999999
PC16 -12918.103304  22371.450498  33310.152781 999999.999999
PE01   9836.329047  16016.920246 -22872.765897 999999.999999
PE02  -9853.946942 -15982.801540  22878.323143 999999.999999
PE03 -19912.963653 -10808.776029 -19049.216302 999999.999999
PE04  29369.175044  -1968.784894   3137.623283 999999.999999
PE05   1307.755921 -17362.744061 -23931.226964 999999.999999
PE07 -21653.016596  13736.608290  14804.333649 999999.999999
PE08 -29358.637924   2308.357189  -3042.421049 999999.999999
PE09  21530.331986 -13821.313608 -14864.092013 999999.999999
PE11  10265.594064 -13190.954027  24427.388939 999999.999999
PE12  21575.473458   6323.390058  19275.107442 999999.999999
PE13 -10245.044941  13072.687771 -24492.151693 999999.999999
PE14 -21830.466481 -11605.683773   6461.964835 999999.999999
PE15 -21446.530024  -5911.154952 -19509.116703 999999.999999
PE18  16628.533916  19891.099920 -17412.765126 999999.999999
PE19  18168.825269  11691.788841  20242.441691 999999.999999
PE21  -4404.458974  27762.221609  -9287.181485 999999.999999
PE24  15970.207253 -23136.984915  -9310.837738 999999.999999
PE25   4451.523984 -27770.275180   9225.109071 999999.999999
PE26   6688.647026  24573.031564 -15082.326137 999999.999999
PE27 -15960.940020  22970.428873   9677.079110 999999.999999
PE30 -18249.987761   4968.942873  22751.484317 999999.999999
PE31  18125.983051  -4709.995656 -22921.939360 999999.999999
PE33  20136.066217  21484.691275   3109.271438 999999.999999
PE36  -6970.451892 -24448.869700  15159.410256 999999.999999
PG01  15323.943307    -57.066979  21553.770596 999999.999999
PG02 -14351.684296 -20697.858497  -8075.331632 999999.999999
PG03  20805.036672  -8400.096792  14113.791841 999999.999999
PG04  10467.033069 -12524.747079 -20941.801087 999999.999999
PG05 -12071.696148  -9761.515171 -21670.439667 999999.999999
PG06  -6638.402294 -25582.143933   2473.122851 999999.999999
PG07   9725.398926 -14842.011675 -19359.499171 999999.999999
PG08  26070.095954   5602.708880   -632.139748 999999.999999
PG09  16421.440621 -10046.956436 -18345.791667 999999.999999
PG10  -8029.174211  21969.321933  12456.575234 999999.999999
PG11  20143.700772   2660.340367  16455.071837 999999.999999
PG12 -20877.096557   6659.553799  14665.982142 999999.999999
PG13 -21972.345822 -13013.228381  -7492.317726 999999.999999
PG14   9571.995275  16549.019828  18829.454682 999999.999999
PG15 -26623.291450  -2746.267300    480.236379 999999.999999
PG16  11994.766632   8965.750937 -22146.288505 999999.999999
PG17    173.039667 -15217.492005  22184.166021 999999.999999
PG18  16996.768877   9958.371333  17395.709653 999999.999999
PG19  -8803.378847 -16056.831706  18906.590968 999999.999999
PG20 -13610.371013  22567.056799   2493.919651 999999.999999
PG21  -4870.851154  19772.940090 -16324.791600 999999.999999
PG22      0.000000      0.000000      0.000000 999999.999999
PG23  24869.104675  -2092.517717  -9329.412304 999999.999999
PG24 -17025.085439  -3543.378850  20003.556656 999999.999999
PG25 -19667.101075  16961.402492   4656.095987 999999.999999
PG26   3553.866316  17417.540511 -19698.037857 999999.999999
PG27  21153.882644  12043.869125 -11080.636936 999999.999999
PG28  10429.637715 -21260.622347  12727.146172 999999.999999
PG29 -20760.750720   5054.129847 -15808.094773 999999.999999
PG30   2348.102239 -23587.994159 -11772.362105 999999.999999
PG31   6787.681988  25407.926997    932.557638 999999.999999
PG32   3754.399727  15883.292223  21026.826500 999999.999999
PJ01 -28332.313863  30904.510884   9668.974099 999999.999999
PJ02 -27379.450701  26846.271996  22134.849024 999999.999999
PJ03 -29928.255276  16196.048756 -20260.508520 999999.999999
PJ07 -25349.970133  33691.879941     26.568357 999999.999999
PR01 -11524.146843  -6795.804422 -21715.376625 999999.999999
PR02 -23867.254229   5034.131963  -7330.940333 999999.999999
PR03 -19772.365002  12479.251635  10188.751794 999999.999999
PR04  -3666.771802  12507.122994  21943.585452 999999.999999
PR05  13525.874909   5478.955186  20939.868248 999999.999999
PR07  19567.533496 -12544.210518 -10512.019756 999999.999999
PR08   4517.880206 -12649.080491 -21631.162110 999999.999999
PR09  11771.529615  -5022.589777 -22045.249021 999999.999999
PR10   9788.183488 -19552.877927 -13094.488713 999999.999999
PR11   1931.016552 -24924.914245   4963.160215 999999.999999
PR13 -11346.035374   3453.078289  22560.156510 999999.999999
PR14  -9717.732099  19752.955371  12901.689082 999999.999999
PR15  -2455.230880  25056.886126  -4071.059871 999999.999999
PR16   6739.182599  15723.656124 -18900.916214 999999.999999
PR17  -9167.616202   6081.686152 -23004.252205 999999.999999
PR18   6103.531806  16231.944392 -18718.464331 999999.999999
PR19  17554.922797  17999.145532  -4322.382640 999999.999999
PR20  19352.395871   8471.814785  14346.785339 999999.999999
PR21   8580.041016  -6518.677555  23122.178860 999999.999999
PR22  -8143.558837 -17018.660870  17102.466775 999999.999999
PR23 -19715.184217 -16152.747029   -913.288575 999999.999999
PR24 -18945.785141  -6796.280450 -15676.778539 999999.999999
PR26  20120.815151   9756.970499  12268.170073 999999.999999
EOF
